CTC1_L_00285001-01
1 74965U 24996OD  26070.40834491  .00000000  00000+0  00000-0 0  9998
2 74965  55.0000   0.0000 0000000   0.0000   0.0000 15.18623435    12
CTC1_L_00285001-02
1 74966U 24796WB  26070.40834491  .00000000  00000+0  00000-0 0  9997
2 74966  55.0000   0.0000 0000000   0.0000  90.0000 15.18623435    12
CTC1_L_00285001-03
1 74967U 26240OK  26070.40834491  .00000000  00000+0  00000-0 0  9994
2 74967  55.0000   0.0000 0000000   0.0000 180.0000 15.18623435    13
CTC1_L_00285001-04
1 74968U 24089UI  26070.40834491  .00000000  00000+0  00000-0 0  9994
2 74968  55.0000   0.0000 0000000   0.0000 270.0000 15.18623435    14
CTC1_L_00285002-01
1 74969U 26826PB  26070.40834491  .00000000  00000+0  00000-0 0  9996
2 74969  55.0000  12.0000 0000000   0.0000  12.0000 15.18623435    12
CTC1_L_00285002-02
1 74970U 22392IP  26070.40834491  .00000000  00000+0  00000-0 0  9992
2 74970  55.0000  12.0000 0000000   0.0000 102.0000 15.18623435    14
CTC1_L_00285002-03
1 74971U 22395QT  26070.40834491  .00000000  00000+0  00000-0 0  9996
2 74971  55.0000  12.0000 0000000   0.0000 192.0000 15.18623435    14
CTC1_L_00285002-04
1 74972U 26645GI  26070.40834491  .00000000  00000+0  00000-0 0  9999
2 74972  55.0000  12.0000 0000000   0.0000 282.0000 15.18623435    15
CTC1_L_00285003-01
1 74973U 26283CD  26070.40834491  .00000000  00000+0  00000-0 0  9998
2 74973  55.0000  24.0000 0000000   0.0000  24.0000 15.18623435    13
CTC1_L_00285003-02
1 74974U 22917HB  26070.40834491  .00000000  00000+0  00000-0 0  9999
2 74974  55.0000  24.0000 0000000   0.0000 114.0000 15.18623435    14
CTC1_L_00285003-03
1 74975U 23907R   26070.40834491  .00000000  00000+0  00000-0 0  9990
2 74975  55.0000  24.0000 0000000   0.0000 204.0000 15.18623435    15
CTC1_L_00285003-04
1 74976U 23838BZ  26070.40834491  .00000000  00000+0  00000-0 0  9994
2 74976  55.0000  24.0000 0000000   0.0000 294.0000 15.18623435    15
CTC1_L_00285004-01
1 74977U 22908SS  26070.40834491  .00000000  00000+0  00000-0 0  9992
2 74977  55.0000  36.0000 0000000   0.0000  36.0000 15.18623435    13
CTC1_L_00285004-02
1 74978U 26958M   26070.40834491  .00000000  00000+0  00000-0 0  9992
2 74978  55.0000  36.0000 0000000   0.0000 126.0000 15.18623435    14
CTC1_L_00285004-03
1 74979U 22267RJ  26070.40834491  .00000000  00000+0  00000-0 0  9992
2 74979  55.0000  36.0000 0000000   0.0000 216.0000 15.18623435    15
CTC1_L_00285004-04
1 74980U 22254IC  26070.40834491  .00000000  00000+0  00000-0 0  9990
2 74980  55.0000  36.0000 0000000   0.0000 306.0000 15.18623435    17
CTC1_L_00285005-01
1 74981U 22678YP  26070.40834491  .00000000  00000+0  00000-0 0  9991
2 74981  55.0000  48.0000 0000000   0.0000  48.0000 15.18623435    14
CTC1_L_00285005-02
1 74982U 26360NX  26070.40834491  .00000000  00000+0  00000-0 0  9994
2 74982  55.0000  48.0000 0000000   0.0000 138.0000 15.18623435    15
CTC1_L_00285005-03
1 74983U 22691SH  26070.40834491  .00000000  00000+0  00000-0 0  9998
2 74983  55.0000  48.0000 0000000   0.0000 228.0000 15.18623435    16
CTC1_L_00285005-04
1 74984U 24784IT  26070.40834491  .00000000  00000+0  00000-0 0  9994
2 74984  55.0000  48.0000 0000000   0.0000 318.0000 15.18623435    17
CTC1_L_00285006-01
1 74985U 23552YO  26070.40834491  .00000000  00000+0  00000-0 0  9997
2 74985  55.0000  60.0000 0000000   0.0000  60.0000 15.18623435    16
CTC1_L_00285006-02
1 74986U 23186LG  26070.40834491  .00000000  00000+0  00000-0 0  9991
2 74986  55.0000  60.0000 0000000   0.0000 150.0000 15.18623435    17
CTC1_L_00285006-03
1 74987U 22065ST  26070.40834491  .00000000  00000+0  00000-0 0  9997
2 74987  55.0000  60.0000 0000000   0.0000 240.0000 15.18623435    18
CTC1_L_00285006-04
1 74988U 26755FT  26070.40834491  .00000000  00000+0  00000-0 0  9998
2 74988  55.0000  60.0000 0000000   0.0000 330.0000 15.18623435    19
CTC1_L_00285007-01
1 74989U 24874HL  26070.40834491  .00000000  00000+0  00000-0 0  9999
2 74989  55.0000  72.0000 0000000   0.0000  72.0000 15.18623435    16
CTC1_L_00285007-02
1 74990U 23439WA  26070.40834491  .00000000  00000+0  00000-0 0  9997
2 74990  55.0000  72.0000 0000000   0.0000 162.0000 15.18623435    18
CTC1_L_00285007-03
1 74991U 24962JJ  26070.40834491  .00000000  00000+0  00000-0 0  9990
2 74991  55.0000  72.0000 0000000   0.0000 252.0000 15.18623435    19
CTC1_L_00285007-04
1 74992U 26935JR  26070.40834491  .00000000  00000+0  00000-0 0  9993
2 74992  55.0000  72.0000 0000000   0.0000 342.0000 15.18623435    10
CTC1_L_00285008-01
1 74993U 26834UK  26070.40834491  .00000000  00000+0  00000-0 0  9992
2 74993  55.0000  84.0000 0000000   0.0000  84.0000 15.18623435    17
CTC1_L_00285008-02
1 74994U 22454HA  26070.40834491  .00000000  00000+0  00000-0 0  9997
2 74994  55.0000  84.0000 0000000   0.0000 174.0000 15.18623435    18
CTC1_L_00285008-03
1 74995U 24404AB  26070.40834491  .00000000  00000+0  00000-0 0  9995
2 74995  55.0000  84.0000 0000000   0.0000 264.0000 15.18623435    19
CTC1_L_00285008-04
1 74996U 24697NZ  26070.40834491  .00000000  00000+0  00000-0 0  9990
2 74996  55.0000  84.0000 0000000   0.0000 354.0000 15.18623435    10
CTC1_L_00285009-01
1 74997U 23718UC  26070.40834491  .00000000  00000+0  00000-0 0  9994
2 74997  55.0000  96.0000 0000000   0.0000  96.0000 15.18623435    17
CTC1_L_00285009-02
1 74998U 23874MK  26070.40834491  .00000000  00000+0  00000-0 0  9998
2 74998  55.0000  96.0000 0000000   0.0000 186.0000 15.18623435    18
CTC1_L_00285009-03
1 74999U 23257EY  26070.40834491  .00000000  00000+0  00000-0 0  9994
2 74999  55.0000  96.0000 0000000   0.0000 276.0000 15.18623435    19
CTC1_L_00285009-04
1 75000U 26155RO  26070.40834491  .00000000  00000+0  00000-0 0  9998
2 75000  55.0000  96.0000 0000000   0.0000   6.0000 15.18623435    14
CTC1_L_00285010-01
1 75001U 26164JC  26070.40834491  .00000000  00000+0  00000-0 0  9999
2 75001  55.0000 108.0000 0000000   0.0000 108.0000 15.18623435    12
CTC1_L_00285010-02
1 75002U 22599YR  26070.40834491  .00000000  00000+0  00000-0 0  9998
2 75002  55.0000 108.0000 0000000   0.0000 198.0000 15.18623435    12
CTC1_L_00285010-03
1 75003U 23714SM  26070.40834491  .00000000  00000+0  00000-0 0  9999
2 75003  55.0000 108.0000 0000000   0.0000 288.0000 15.18623435    13
CTC1_L_00285010-04
1 75004U 26425QV  26070.40834491  .00000000  00000+0  00000-0 0  9992
2 75004  55.0000 108.0000 0000000   0.0000  18.0000 15.18623435    15
CTC1_L_00285011-01
1 75005U 25246VJ  26070.40834491  .00000000  00000+0  00000-0 0  9993
2 75005  55.0000 120.0000 0000000   0.0000 120.0000 15.18623435    14
CTC1_L_00285011-02
1 75006U 23844SN  26070.40834491  .00000000  00000+0  00000-0 0  9996
2 75006  55.0000 120.0000 0000000   0.0000 210.0000 15.18623435    15
CTC1_L_00285011-03
1 75007U 26014AZ  26070.40834491  .00000000  00000+0  00000-0 0  9999
2 75007  55.0000 120.0000 0000000   0.0000 300.0000 15.18623435    16
CTC1_L_00285011-04
1 75008U 22194OM  26070.40834491  .00000000  00000+0  00000-0 0  9995
2 75008  55.0000 120.0000 0000000   0.0000  30.0000 15.18623435    17
CTC1_L_00285012-01
1 75009U 26929FQ  26070.40834491  .00000000  00000+0  00000-0 0  9996
2 75009  55.0000 132.0000 0000000   0.0000 132.0000 15.18623435    14
CTC1_L_00285012-02
1 75010U 26830EG  26070.40834491  .00000000  00000+0  00000-0 0  9999
2 75010  55.0000 132.0000 0000000   0.0000 222.0000 15.18623435    16
CTC1_L_00285012-03
1 75011U 25194SB  26070.40834491  .00000000  00000+0  00000-0 0  9992
2 75011  55.0000 132.0000 0000000   0.0000 312.0000 15.18623435    17
CTC1_L_00285012-04
1 75012U 24508WM  26070.40834491  .00000000  00000+0  00000-0 0  9991
2 75012  55.0000 132.0000 0000000   0.0000  42.0000 15.18623435    18
CTC1_L_00285013-01
1 75013U 23376WN  26070.40834491  .00000000  00000+0  00000-0 0  9994
2 75013  55.0000 144.0000 0000000   0.0000 144.0000 15.18623435    15
CTC1_L_00285013-02
1 75014U 26491KM  26070.40834491  .00000000  00000+0  00000-0 0  9996
2 75014  55.0000 144.0000 0000000   0.0000 234.0000 15.18623435    16
CTC1_L_00285013-03
1 75015U 26897PI  26070.40834491  .00000000  00000+0  00000-0 0  9997
2 75015  55.0000 144.0000 0000000   0.0000 324.0000 15.18623435    17
CTC1_L_00285013-04
1 75016U 23561UC  26070.40834491  .00000000  00000+0  00000-0 0  9993
2 75016  55.0000 144.0000 0000000   0.0000  54.0000 15.18623435    18
CTC1_L_00285014-01
1 75017U 23959SS  26070.40834491  .00000000  00000+0  00000-0 0  9995
2 75017  55.0000 156.0000 0000000   0.0000 156.0000 15.18623435    15
CTC1_L_00285014-02
1 75018U 23479PS  26070.40834491  .00000000  00000+0  00000-0 0  9993
2 75018  55.0000 156.0000 0000000   0.0000 246.0000 15.18623435    16
CTC1_L_00285014-03
1 75019U 24204HK  26070.40834491  .00000000  00000+0  00000-0 0  9991
2 75019  55.0000 156.0000 0000000   0.0000 336.0000 15.18623435    17
CTC1_L_00285014-04
1 75020U 26914BV  26070.40834491  .00000000  00000+0  00000-0 0  9993
2 75020  55.0000 156.0000 0000000   0.0000  66.0000 15.18623435    19
CTC1_L_00285015-01
1 75021U 26554IF  26070.40834491  .00000000  00000+0  00000-0 0  9994
2 75021  55.0000 168.0000 0000000   0.0000 168.0000 15.18623435    16
CTC1_L_00285015-02
1 75022U 25536SC  26070.40834491  .00000000  00000+0  00000-0 0  9994
2 75022  55.0000 168.0000 0000000   0.0000 258.0000 15.18623435    17
CTC1_L_00285015-03
1 75023U 26050TN  26070.40834491  .00000000  00000+0  00000-0 0  9997
2 75023  55.0000 168.0000 0000000   0.0000 348.0000 15.18623435    18
CTC1_L_00285015-04
1 75024U 22611ML  26070.40834491  .00000000  00000+0  00000-0 0  9997
2 75024  55.0000 168.0000 0000000   0.0000  78.0000 15.18623435    19
CTC1_L_00285016-01
1 75025U 25833AC  26070.40834491  .00000000  00000+0  00000-0 0  9997
2 75025  55.0000 180.0000 0000000   0.0000 180.0000 15.18623435    18
CTC1_L_00285016-02
1 75026U 24280DI  26070.40834491  .00000000  00000+0  00000-0 0  9993
2 75026  55.0000 180.0000 0000000   0.0000 270.0000 15.18623435    19
